{
  "version": 1,
  "fetchedAt": "2026-06-16T16:59:36.124Z",
  "source": "celestrak-gp",
  "counts": {
    "station": 25,
    "satellite": 400,
    "debris": 250
  },
  "objects": [
    {
      "id": "43585",
      "name": "GAOFEN-11 01",
      "noradId": 43585,
      "line1": "1 43585U 18063A   26167.27259028  .00010618  00000+0  15827-3 0  9991",
      "line2": "2 43585  97.1295 234.1542 0003183   2.0877 358.0391 15.55263794440206",
      "category": "satellite"
    },
    {
      "id": "43613",
      "name": "ICESAT-2",
      "noradId": 43613,
      "line1": "1 43613U 18070A   26167.30382922  .00007997  00000+0  29032-3 0  9994",
      "line2": "2 43613  92.0083 290.7400 0005981 108.5377 251.6523 15.28269698432321",
      "category": "satellite"
    },
    {
      "id": "43719",
      "name": "HYSIS",
      "noradId": 43719,
      "line1": "1 43719U 18096A   26167.33171315  .00000475  00000+0  71838-4 0  9990",
      "line2": "2 43719  97.9845 234.0866 0001912 106.7987 253.3434 14.78693016407299",
      "category": "satellite"
    },
    {
      "id": "43783",
      "name": "KAZSTSAT",
      "noradId": 43783,
      "line1": "1 43783U 18099AB  26167.03006949  .00001376  00000+0  11554-3 0  9990",
      "line2": "2 43783  97.4267 199.0110 0008447  72.8444 287.3704 14.99862897411139",
      "category": "satellite"
    },
    {
      "id": "43831",
      "name": "SAUDISAT 5A",
      "noradId": 43831,
      "line1": "1 43831U 18102A   26167.31351380  .00004866  00000+0  18034-3 0  9999",
      "line2": "2 43831  97.3069 228.9113 0010968 131.7048 228.5132 15.28040836415548",
      "category": "satellite"
    },
    {
      "id": "43833",
      "name": "SAUDISAT 5B",
      "noradId": 43833,
      "line1": "1 43833U 18102C   26167.33250469  .00004611  00000+0  16967-3 0  9990",
      "line2": "2 43833  97.3176 231.9980 0011632 133.8852 226.3351 15.28298006415666",
      "category": "satellite"
    },
    {
      "id": "44622",
      "name": "GAOFEN-10R",
      "noradId": 44622,
      "line1": "1 44622U 19066A   26167.27670113  .00000966  00000+0  12547-3 0  9991",
      "line2": "2 44622  98.0497 120.8493 0006624 130.0017 230.1779 14.83059145362240",
      "category": "satellite"
    },
    {
      "id": "44804",
      "name": "CARTOSAT-3",
      "noradId": 44804,
      "line1": "1 44804U 19081A   26167.30111741  .00002721  00000+0  13201-3 0  9990",
      "line2": "2 44804  97.4307 229.1822 0013181 151.4316 208.7644 15.19276517363336",
      "category": "satellite"
    },
    {
      "id": "44819",
      "name": "GAOFEN-12 01",
      "noradId": 44819,
      "line1": "1 44819U 19082A   26167.26866193  .00000317  00000+0  48119-4 0  9996",
      "line2": "2 44819  97.8100 173.6724 0002303  71.2443 288.9019 14.80457867353954",
      "category": "satellite"
    },
    {
      "id": "44873",
      "name": "CSG-1",
      "noradId": 44873,
      "line1": "1 44873U 19092A   26167.30873119  .00000336  00000+0  48717-4 0  9993",
      "line2": "2 44873  97.8888 350.9239 0001455  89.8054 270.3326 14.82152572351342",
      "category": "satellite"
    },
    {
      "id": "46277",
      "name": "NEMO-HD",
      "noradId": 46277,
      "line1": "1 46277U 20061F   26167.28755993  .00009099  00000+0  19761-3 0  9998",
      "line2": "2 46277  97.1920 229.2495 0002310  82.2075 277.9437 15.44578469321849",
      "category": "satellite"
    },
    {
      "id": "46984",
      "name": "SENTINEL-6A",
      "noradId": 46984,
      "line1": "1 46984U 20086A   26167.30472411 -.00000075  00000+0 -59546-4 0  9997",
      "line2": "2 46984  66.0394 136.8852 0007945 270.2348  89.7757 12.80929950260214",
      "category": "satellite"
    },
    {
      "id": "47932",
      "name": "CAS500-1",
      "noradId": 47932,
      "line1": "1 47932U 21022A   26167.27312631  .00002435  00000+0  11580-3 0  9990",
      "line2": "2 47932  97.3907  62.5446 0003443 306.7298  53.3621 15.20122500290625",
      "category": "satellite"
    },
    {
      "id": "48079",
      "name": "GAOFEN-12 02",
      "noradId": 48079,
      "line1": "1 48079U 21026A   26167.27962196  .00000309  00000+0  47528-4 0  9994",
      "line2": "2 48079  97.9921 165.4639 0003617 225.5856 134.5060 14.80295625281621",
      "category": "satellite"
    },
    {
      "id": "48268",
      "name": "PLEIADES NEO 3",
      "noradId": 48268,
      "line1": "1 48268U 21034A   26167.30769376  .00001192  00000+0  15807-3 0  9997",
      "line2": "2 48268  97.8936 242.0870 0001380  88.7729 271.3642 14.81673277277522",
      "category": "satellite"
    },
    {
      "id": "49070",
      "name": "PLEIADES NEO 4",
      "noradId": 49070,
      "line1": "1 49070U 21073E   26167.13885211  .00000278  00000+0  41922-4 0  9992",
      "line2": "2 49070  97.8942 241.9160 0001372  87.4861 272.6509 14.81672864261211",
      "category": "satellite"
    },
    {
      "id": "49260",
      "name": "LANDSAT 9",
      "noradId": 49260,
      "line1": "1 49260U 21088A   26167.16646890  .00000317  00000+0  80381-4 0  9996",
      "line2": "2 49260  98.2281 237.3563 0001357  85.6882 274.4471 14.57096555250851",
      "category": "satellite"
    },
    {
      "id": "51444",
      "name": "CSG-2",
      "noradId": 51444,
      "line1": "1 51444U 22008A   26167.27495997  .00000578  00000+0  79141-4 0  9999",
      "line2": "2 51444  97.8877 350.8858 0001457  85.2939 274.8440 14.82156578236452",
      "category": "satellite"
    },
    {
      "id": "52912",
      "name": "GAOFEN-12 03",
      "noradId": 52912,
      "line1": "1 52912U 22069A   26167.24176782  .00000769  00000+0  10834-3 0  9997",
      "line2": "2 52912  97.8286  55.1364 0001984 102.7023 257.4411 14.80033009214472",
      "category": "satellite"
    },
    {
      "id": "54754",
      "name": "SWOT",
      "noradId": 54754,
      "line1": "1 54754U 22173A   26167.27371066  .00000026  00000+0  19134-4 0  9993",
      "line2": "2 54754  77.6107  36.5434 0000234  86.7513 273.3666 14.00169575179029",
      "category": "satellite"
    },
    {
      "id": "57654",
      "name": "GAOFEN-12 04",
      "noradId": 57654,
      "line1": "1 57654U 23123A   26167.32616903  .00000859  00000+0  11975-3 0  9997",
      "line2": "2 57654  97.9123  85.3563 0001797  83.5130 276.6287 14.80227461152500",
      "category": "satellite"
    },
    {
      "id": "59065",
      "name": "PARS 1",
      "noradId": 59065,
      "line1": "1 59065U 24039Q   26167.27872617  .00009056  00000+0  18899-3 0  9992",
      "line2": "2 59065  97.4820 148.1698 0011456 114.2712 245.9735 15.45707762128504",
      "category": "satellite"
    },
    {
      "id": "59371",
      "name": "RESURS-P 4",
      "noradId": 59371,
      "line1": "1 59371U 24061A   26167.28349723  .00002635  00000+0  87416-4 0  9993",
      "line2": "2 59371  97.2754 115.1980 0002107 128.0634 232.0798 15.32126980123622",
      "category": "satellite"
    },
    {
      "id": "59625",
      "name": "LEGION 1",
      "noradId": 59625,
      "line1": "1 59625U 24081A   26167.23736507  .00003315  00000+0  17266-3 0  9993",
      "line2": "2 59625  97.5021 245.1043 0009615  21.1795 338.9834 15.16661590117397",
      "category": "satellite"
    },
    {
      "id": "59626",
      "name": "LEGION 2",
      "noradId": 59626,
      "line1": "1 59626U 24081B   26167.26733010  .00002831  00000+0  14803-3 0  9999",
      "line2": "2 59626  97.5021 245.2314 0010858 346.9621  13.1330 15.16640697117407",
      "category": "satellite"
    },
    {
      "id": "60182",
      "name": "ALOS-4 (DAICHI-4)",
      "noradId": 60182,
      "line1": "1 60182U 24123A   26166.87348892  .00001272  00000+0  17718-3 0  9997",
      "line2": "2 60182  97.9245 264.0657 0001588  97.6943 262.4449 14.79475009105682",
      "category": "satellite"
    },
    {
      "id": "60452",
      "name": "LEGION 3",
      "noradId": 60452,
      "line1": "1 60452U 24146A   26167.14254766  .00002840  00000+0  15872-3 0  9990",
      "line2": "2 60452  45.0021  36.1579 0007505 164.2290 195.8824 15.16031003101866",
      "category": "satellite"
    },
    {
      "id": "60453",
      "name": "LEGION 4",
      "noradId": 60453,
      "line1": "1 60453U 24146B   26167.21152502  .00003344  00000+0  18428-3 0  9994",
      "line2": "2 60453  45.0002 127.6976 0013835 303.3517  56.6037 15.16023330100722",
      "category": "satellite"
    },
    {
      "id": "60989",
      "name": "SENTINEL-2C",
      "noradId": 60989,
      "line1": "1 60989U 24157A   26167.19352455  .00000095  00000+0  52939-4 0  9992",
      "line2": "2 60989  98.5692 241.9896 0001029  81.0061 279.1238 14.30817576 92847",
      "category": "satellite"
    },
    {
      "id": "61735",
      "name": "IONOSFERA-M 1",
      "noradId": 61735,
      "line1": "1 61735U 24199A   26167.27955492  .00000050  00000+0  41827-4 0  9992",
      "line2": "2 61735  98.7173  40.4614 0001931 111.5505 248.5879 14.22754167127574",
      "category": "satellite"
    }
  ]
}