OBJECT_NAME,OBJECT_ID,EPOCH,MEAN_MOTION,ECCENTRICITY,INCLINATION,RA_OF_ASC_NODE,ARG_OF_PERICENTER,MEAN_ANOMALY,EPHEMERIS_TYPE,CLASSIFICATION_TYPE,NORAD_CAT_ID,ELEMENT_SET_NO,REV_AT_EPOCH,BSTAR,MEAN_MOTION_DOT,MEAN_MOTION_DDOT
GAOFEN-11 01,2018-063A,2026-06-16T06:32:31.800192,15.55263794,.00031832,97.1295,234.1542,2.0877,358.0391,0,U,43585,999,44020,.1582717E-3,.10618E-3,0
ICESAT-2,2018-070A,2026-06-16T07:17:30.844608,15.28269698,.00059811,92.0083,290.7400,108.5377,251.6523,0,U,43613,999,43232,.29032162E-3,.7997E-4,0
HYSIS,2018-096A,2026-06-16T07:57:40.016160,14.78693016,.00019128,97.9845,234.0866,106.7987,253.3434,0,U,43719,999,40729,.7183849E-4,.475E-5,0
KAZSTSAT,2018-099AB,2026-06-16T00:43:18.003936,14.99862897,.00084475,97.4267,199.0110,72.8444,287.3704,0,U,43783,999,41113,.11553677E-3,.1376E-4,0
SAUDISAT 5A,2018-102A,2026-06-16T07:31:27.592320,15.28040836,.00109686,97.3069,228.9113,131.7048,228.5132,0,U,43831,999,41554,.18034175E-3,.4866E-4,0
SAUDISAT 5B,2018-102C,2026-06-16T07:58:48.405216,15.28298006,.00116326,97.3176,231.9980,133.8852,226.3351,0,U,43833,999,41566,.16967023E-3,.4611E-4,0
GAOFEN-10R,2019-066A,2026-06-16T06:38:26.977632,14.83059145,.00066242,98.0497,120.8493,130.0017,230.1779,0,U,44622,999,36224,.12547196E-3,.966E-5,0
CARTOSAT-3,2019-081A,2026-06-16T07:13:36.544224,15.19276517,.00131812,97.4307,229.1822,151.4316,208.7644,0,U,44804,999,36333,.13200536E-3,.2721E-4,0
GAOFEN-12 01,2019-082A,2026-06-16T06:26:52.390752,14.80457867,.00023038,97.8100,173.6724,71.2443,288.9019,0,U,44819,999,35395,.48118836E-4,.317E-5,0
CSG-1,2019-092A,2026-06-16T07:24:34.374816,14.82152572,.00014554,97.8888,350.9239,89.8054,270.3326,0,U,44873,999,35134,.48717356E-4,.336E-5,0
NEMO-HD,2020-061F,2026-06-16T06:54:05.177952,15.44578469,.00023109,97.1920,229.2495,82.2075,277.9437,0,U,46277,999,32184,.19761251E-3,.9099E-4,0
SENTINEL-6A,2020-086A,2026-06-16T07:18:48.163104,12.80929950,.00079451,66.0394,136.8852,270.2348,89.7757,0,U,46984,999,26021,-.59546343E-4,-.75E-6,0
CAS500-1,2021-022A,2026-06-16T06:33:18.113184,15.20122500,.00034432,97.3907,62.5446,306.7298,53.3621,0,U,47932,999,29062,.11579961E-3,.2435E-4,0
GAOFEN-12 02,2021-026A,2026-06-16T06:42:39.337344,14.80295625,.00036173,97.9921,165.4639,225.5856,134.5060,0,U,48079,999,28162,.47528239E-4,.309E-5,0
PLEIADES NEO 3,2021-034A,2026-06-16T07:23:04.740864,14.81673277,.00013806,97.8936,242.0870,88.7729,271.3642,0,U,48268,999,27752,.15806966E-3,.1192E-4,0
PLEIADES NEO 4,2021-073E,2026-06-16T03:19:56.822304,14.81672864,.00013724,97.8942,241.9160,87.4861,272.6509,0,U,49070,999,26121,.41921981E-4,.278E-5,0
LANDSAT 9,2021-088A,2026-06-16T03:59:42.912960,14.57096555,.00013571,98.2281,237.3563,85.6882,274.4471,0,U,49260,999,25085,.80381031E-4,.317E-5,0
CSG-2,2022-008A,2026-06-16T06:35:56.541408,14.82156578,.00014574,97.8877,350.8858,85.2939,274.8440,0,U,51444,999,23645,.79140689E-4,.578E-5,0
GAOFEN-12 03,2022-069A,2026-06-16T05:48:08.739648,14.80033009,.00019845,97.8286,55.1364,102.7023,257.4411,0,U,52912,999,21447,.10833968E-3,.769E-5,0
SWOT,2022-173A,2026-06-16T06:34:08.601024,14.00169575,.00002346,77.6107,36.5434,86.7513,273.3666,0,U,54754,999,17902,.19134304E-4,.26E-6,0
GAOFEN-12 04,2023-123A,2026-06-16T07:49:41.004192,14.80227461,.00017976,97.9123,85.3563,83.5130,276.6287,0,U,57654,999,15250,.119748E-3,.859E-5,0
PARS 1,2024-039Q,2026-06-16T06:41:21.941088,15.45707762,.0011456,97.4820,148.1698,114.2712,245.9735,0,U,59065,999,12850,.18899391E-3,.9056E-4,0
RESURS-P 4,2024-061A,2026-06-16T06:48:14.160672,15.32126980,.00021074,97.2754,115.1980,128.0634,232.0798,0,U,59371,999,12362,.87415796E-4,.2635E-4,0
LEGION 1,2024-081A,2026-06-16T05:41:48.342048,15.16661590,.00096152,97.5021,245.1043,21.1795,338.9834,0,U,59625,999,11739,.17265976E-3,.3315E-4,0
LEGION 2,2024-081B,2026-06-16T06:24:57.320640,15.16640697,.0010858,97.5021,245.2314,346.9621,13.1330,0,U,59626,999,11740,.14802937E-3,.2831E-4,0
ALOS-4 (DAICHI-4),2024-123A,2026-06-15T20:57:49.442688,14.79475009,.0001588,97.9245,264.0657,97.6943,262.4449,0,U,60182,999,10568,.17718E-3,.1272E-4,0
LEGION 3,2024-146A,2026-06-16T03:25:16.117824,15.16031003,.00075057,45.0021,36.1579,164.2290,195.8824,0,U,60452,999,10186,.15871508E-3,.284E-4,0
LEGION 4,2024-146B,2026-06-16T05:04:35.761728,15.16023330,.00138355,45.0002,127.6976,303.3517,56.6037,0,U,60453,999,10072,.18427797E-3,.3344E-4,0
SENTINEL-2C,2024-157A,2026-06-16T04:38:40.521120,14.30817576,.00010291,98.5692,241.9896,81.0061,279.1238,0,U,60989,999,9284,.52939399E-4,.95E-6,0
IONOSFERA-M 1,2024-199A,2026-06-16T06:42:33.545088,14.22754167,.00019317,98.7173,40.4614,111.5505,248.5879,0,U,61735,999,12757,.41826749E-4,.5E-6,0
